COSMOS 2058             
1 20465U 90010A   26089.89993860  .00006943  00000+0  40797-3 0  9995
2 20465  82.4702  26.5276 0007540 257.9066 102.1320 15.11522191945444
SL-14 R/B               
1 20466U 90010B   26090.20224384  .00000686  00000+0  80166-4 0  9994
2 20466  82.5000 247.1756 0018722 226.0634 133.9037 14.83589803931671
SL-14 R/B               
1 20511U 90018B   26090.03817112  .00000573  00000+0  68833-4 0  9993
2 20511  82.5239 203.1399 0016765  26.5155 333.6913 14.82166477925747
HST                     
1 20580U 90037B   26090.14666397  .00010310  00000+0  33878-3 0  9999
2 20580  28.4719 253.5904 0001890  15.8116 344.2538 15.29823594776609
SL-16 R/B               
1 20625U 90046B   26089.90473427  .00000183  00000+0  11922-3 0  9994
2 20625  70.9980 253.3538 0016409 271.8844  88.0400 14.15017553851391
COSMOS 2084             
1 20663U 90055A   26089.84094927  .00004180  00000+0  30027-3 0  9991
2 20663  62.7893 263.4301 0013685 196.6588 163.4065 15.05772419939501
SL-6 R/B(2)             
1 20666U 90055D   26089.65310509  .00002797  00000+0  21598-3 0  9995
2 20666  62.7835 182.5557 0028244 351.7868   8.2765 15.03696727941349
SL-8 R/B                
1 20775U 90078B   26090.14073502  .00015419  00000+0  45690-3 0  9990
2 20775  82.9028 232.0063 0358126 301.6339  55.0397 14.89701482812495
SL-8 R/B                
1 21088U 91006B   26090.11544429  .00000128  00000+0  11360-3 0  9996
2 21088  82.9441 154.1166 0021696 338.6057  36.3955 13.77497714767022
OKEAN-3                 
1 21397U 91039A   26090.08963867  .00003649  00000+0  25540-3 0  9998
2 21397  82.5158 316.1083 0012437 257.8124 102.1710 15.04929646868258
COSMOS 2151             
1 21422U 91042A   26090.16130123  .00002712  00000+0  21466-3 0  9994
2 21422  82.4948  62.9574 0012102 355.7145   4.3973 15.00199844866419
SL-14 R/B               
1 21423U 91042B   26090.02823223  .00000601  00000+0  72916-4 0  9992
2 21423  82.4957 200.1772 0017403 166.3594 193.8094 14.81851588856234
