CCSDS_OMM_VERS = 2.0
CREATION_DATE  = 
ORIGINATOR     = 

OBJECT_NAME    = COSMOS 2058
OBJECT_ID      = 1990-010A
CENTER_NAME    = EARTH
REF_FRAME      = TEME
TIME_SYSTEM    = UTC
MEAN_ELEMENT_THEORY = SGP/SGP4

EPOCH          = 2026-03-30T21:35:54.695040
MEAN_MOTION    = 15.11522191
ECCENTRICITY   = .000754
INCLINATION    = 82.4702
RA_OF_ASC_NODE = 26.5276
ARG_OF_PERICENTER = 257.9066
MEAN_ANOMALY   = 102.1320

EPHEMERIS_TYPE = 0
CLASSIFICATION_TYPE = U
NORAD_CAT_ID   = 20465
ELEMENT_SET_NO = 999
REV_AT_EPOCH   = 94544
BSTAR          = .40797E-3
MEAN_MOTION_DOT = .6943E-4
MEAN_MOTION_DDOT = 0

CCSDS_OMM_VERS = 2.0
CREATION_DATE  = 
ORIGINATOR     = 

OBJECT_NAME    = SL-14 R/B
OBJECT_ID      = 1990-010B
CENTER_NAME    = EARTH
REF_FRAME      = TEME
TIME_SYSTEM    = UTC
MEAN_ELEMENT_THEORY = SGP/SGP4

EPOCH          = 2026-03-31T04:51:13.867776
MEAN_MOTION    = 14.83589803
ECCENTRICITY   = .0018722
INCLINATION    = 82.5000
RA_OF_ASC_NODE = 247.1756
ARG_OF_PERICENTER = 226.0634
MEAN_ANOMALY   = 133.9037

EPHEMERIS_TYPE = 0
CLASSIFICATION_TYPE = U
NORAD_CAT_ID   = 20466
ELEMENT_SET_NO = 999
REV_AT_EPOCH   = 93167
BSTAR          = .80166E-4
MEAN_MOTION_DOT = .686E-5
MEAN_MOTION_DDOT = 0

CCSDS_OMM_VERS = 2.0
CREATION_DATE  = 
ORIGINATOR     = 

OBJECT_NAME    = SL-14 R/B
OBJECT_ID      = 1990-018B
CENTER_NAME    = EARTH
REF_FRAME      = TEME
TIME_SYSTEM    = UTC
MEAN_ELEMENT_THEORY = SGP/SGP4

EPOCH          = 2026-03-31T00:54:57.984768
MEAN_MOTION    = 14.82166477
ECCENTRICITY   = .0016765
INCLINATION    = 82.5239
RA_OF_ASC_NODE = 203.1399
ARG_OF_PERICENTER = 26.5155
MEAN_ANOMALY   = 333.6913

EPHEMERIS_TYPE = 0
CLASSIFICATION_TYPE = U
NORAD_CAT_ID   = 20511
ELEMENT_SET_NO = 999
REV_AT_EPOCH   = 92574
BSTAR          = .68833E-4
MEAN_MOTION_DOT = .573E-5
MEAN_MOTION_DDOT = 0

CCSDS_OMM_VERS = 2.0
CREATION_DATE  = 
ORIGINATOR     = 

OBJECT_NAME    = HST
OBJECT_ID      = 1990-037B
CENTER_NAME    = EARTH
REF_FRAME      = TEME
TIME_SYSTEM    = UTC
MEAN_ELEMENT_THEORY = SGP/SGP4

EPOCH          = 2026-03-31T03:31:11.767008
MEAN_MOTION    = 15.29823594
ECCENTRICITY   = .000189
INCLINATION    = 28.4719
RA_OF_ASC_NODE = 253.5904
ARG_OF_PERICENTER = 15.8116
MEAN_ANOMALY   = 344.2538

EPHEMERIS_TYPE = 0
CLASSIFICATION_TYPE = U
NORAD_CAT_ID   = 20580
ELEMENT_SET_NO = 999
REV_AT_EPOCH   = 77660
BSTAR          = .33878E-3
MEAN_MOTION_DOT = .1031E-3
MEAN_MOTION_DDOT = 0

CCSDS_OMM_VERS = 2.0
CREATION_DATE  = 
ORIGINATOR     = 

OBJECT_NAME    = SL-16 R/B
OBJECT_ID      = 1990-046B
CENTER_NAME    = EARTH
REF_FRAME      = TEME
TIME_SYSTEM    = UTC
MEAN_ELEMENT_THEORY = SGP/SGP4

EPOCH          = 2026-03-30T21:42:49.040928
MEAN_MOTION    = 14.15017553
ECCENTRICITY   = .0016409
INCLINATION    = 70.9980
RA_OF_ASC_NODE = 253.3538
ARG_OF_PERICENTER = 271.8844
MEAN_ANOMALY   = 88.0400

EPHEMERIS_TYPE = 0
CLASSIFICATION_TYPE = U
NORAD_CAT_ID   = 20625
ELEMENT_SET_NO = 999
REV_AT_EPOCH   = 85139
BSTAR          = .11922E-3
MEAN_MOTION_DOT = .183E-5
MEAN_MOTION_DDOT = 0

CCSDS_OMM_VERS = 2.0
CREATION_DATE  = 
ORIGINATOR     = 

OBJECT_NAME    = COSMOS 2084
OBJECT_ID      = 1990-055A
CENTER_NAME    = EARTH
REF_FRAME      = TEME
TIME_SYSTEM    = UTC
MEAN_ELEMENT_THEORY = SGP/SGP4

EPOCH          = 2026-03-30T20:10:58.016928
MEAN_MOTION    = 15.05772419
ECCENTRICITY   = .00136858
INCLINATION    = 62.7893
RA_OF_ASC_NODE = 263.4301
ARG_OF_PERICENTER = 196.6588
MEAN_ANOMALY   = 163.4065

EPHEMERIS_TYPE = 0
CLASSIFICATION_TYPE = U
NORAD_CAT_ID   = 20663
ELEMENT_SET_NO = 999
REV_AT_EPOCH   = 93950
BSTAR          = .30027153E-3
MEAN_MOTION_DOT = .418E-4
MEAN_MOTION_DDOT = 0

CCSDS_OMM_VERS = 2.0
CREATION_DATE  = 
ORIGINATOR     = 

OBJECT_NAME    = SL-6 R/B(2)
OBJECT_ID      = 1990-055D
CENTER_NAME    = EARTH
REF_FRAME      = TEME
TIME_SYSTEM    = UTC
MEAN_ELEMENT_THEORY = SGP/SGP4

EPOCH          = 2026-03-30T15:40:28.279776
MEAN_MOTION    = 15.03696727
ECCENTRICITY   = .00282442
INCLINATION    = 62.7835
RA_OF_ASC_NODE = 182.5557
ARG_OF_PERICENTER = 351.7868
MEAN_ANOMALY   = 8.2765

EPHEMERIS_TYPE = 0
CLASSIFICATION_TYPE = U
NORAD_CAT_ID   = 20666
ELEMENT_SET_NO = 999
REV_AT_EPOCH   = 94134
BSTAR          = .21597751E-3
MEAN_MOTION_DOT = .2797E-4
MEAN_MOTION_DDOT = 0

CCSDS_OMM_VERS = 2.0
CREATION_DATE  = 
ORIGINATOR     = 

OBJECT_NAME    = SL-8 R/B
OBJECT_ID      = 1990-078B
CENTER_NAME    = EARTH
REF_FRAME      = TEME
TIME_SYSTEM    = UTC
MEAN_ELEMENT_THEORY = SGP/SGP4

EPOCH          = 2026-03-31T03:22:39.505728
MEAN_MOTION    = 14.89701482
ECCENTRICITY   = .0358126
INCLINATION    = 82.9028
RA_OF_ASC_NODE = 232.0063
ARG_OF_PERICENTER = 301.6339
MEAN_ANOMALY   = 55.0397

EPHEMERIS_TYPE = 0
CLASSIFICATION_TYPE = U
NORAD_CAT_ID   = 20775
ELEMENT_SET_NO = 999
REV_AT_EPOCH   = 81249
BSTAR          = .4569E-3
MEAN_MOTION_DOT = .15419E-3
MEAN_MOTION_DDOT = 0

CCSDS_OMM_VERS = 2.0
CREATION_DATE  = 
ORIGINATOR     = 

OBJECT_NAME    = SL-8 R/B
OBJECT_ID      = 1991-006B
CENTER_NAME    = EARTH
REF_FRAME      = TEME
TIME_SYSTEM    = UTC
MEAN_ELEMENT_THEORY = SGP/SGP4

EPOCH          = 2026-03-31T02:46:14.386656
MEAN_MOTION    = 13.77497714
ECCENTRICITY   = .0021696
INCLINATION    = 82.9441
RA_OF_ASC_NODE = 154.1166
ARG_OF_PERICENTER = 338.6057
MEAN_ANOMALY   = 36.3955

EPHEMERIS_TYPE = 0
CLASSIFICATION_TYPE = U
NORAD_CAT_ID   = 21088
ELEMENT_SET_NO = 999
REV_AT_EPOCH   = 76702
BSTAR          = .1136E-3
MEAN_MOTION_DOT = .128E-5
MEAN_MOTION_DDOT = 0

CCSDS_OMM_VERS = 2.0
CREATION_DATE  = 
ORIGINATOR     = 

OBJECT_NAME    = OKEAN-3
OBJECT_ID      = 1991-039A
CENTER_NAME    = EARTH
REF_FRAME      = TEME
TIME_SYSTEM    = UTC
MEAN_ELEMENT_THEORY = SGP/SGP4

EPOCH          = 2026-03-31T02:09:04.781088
MEAN_MOTION    = 15.04929646
ECCENTRICITY   = .0012437
INCLINATION    = 82.5158
RA_OF_ASC_NODE = 316.1083
ARG_OF_PERICENTER = 257.8124
MEAN_ANOMALY   = 102.1710

EPHEMERIS_TYPE = 0
CLASSIFICATION_TYPE = U
NORAD_CAT_ID   = 21397
ELEMENT_SET_NO = 999
REV_AT_EPOCH   = 86825
BSTAR          = .2554E-3
MEAN_MOTION_DOT = .3649E-4
MEAN_MOTION_DDOT = 0

CCSDS_OMM_VERS = 2.0
CREATION_DATE  = 
ORIGINATOR     = 

OBJECT_NAME    = COSMOS 2151
OBJECT_ID      = 1991-042A
CENTER_NAME    = EARTH
REF_FRAME      = TEME
TIME_SYSTEM    = UTC
MEAN_ELEMENT_THEORY = SGP/SGP4

EPOCH          = 2026-03-31T03:52:16.426272
MEAN_MOTION    = 15.00199844
ECCENTRICITY   = .0012102
INCLINATION    = 82.4948
RA_OF_ASC_NODE = 62.9574
ARG_OF_PERICENTER = 355.7145
MEAN_ANOMALY   = 4.3973

EPHEMERIS_TYPE = 0
CLASSIFICATION_TYPE = U
NORAD_CAT_ID   = 21422
ELEMENT_SET_NO = 999
REV_AT_EPOCH   = 86641
BSTAR          = .21466E-3
MEAN_MOTION_DOT = .2712E-4
MEAN_MOTION_DDOT = 0

CCSDS_OMM_VERS = 2.0
CREATION_DATE  = 
ORIGINATOR     = 

OBJECT_NAME    = SL-14 R/B
OBJECT_ID      = 1991-042B
CENTER_NAME    = EARTH
REF_FRAME      = TEME
TIME_SYSTEM    = UTC
MEAN_ELEMENT_THEORY = SGP/SGP4

EPOCH          = 2026-03-31T00:40:39.264672
MEAN_MOTION    = 14.81851588
ECCENTRICITY   = .0017403
INCLINATION    = 82.4957
RA_OF_ASC_NODE = 200.1772
ARG_OF_PERICENTER = 166.3594
MEAN_ANOMALY   = 193.8094

EPHEMERIS_TYPE = 0
CLASSIFICATION_TYPE = U
NORAD_CAT_ID   = 21423
ELEMENT_SET_NO = 999
REV_AT_EPOCH   = 85623
BSTAR          = .72916E-4
MEAN_MOTION_DOT = .601E-5
MEAN_MOTION_DDOT = 0

